[{"OBJECT_NAME":"STARLINK-30943","OBJECT_ID":"2023-183N","EPOCH":"2026-03-09T22:00:01.999584","MEAN_MOTION":15.26752373,"ECCENTRICITY":0.00014888,"INCLINATION":43.0005,"RA_OF_ASC_NODE":14.4403,"ARG_OF_PERICENTER":258.0683,"MEAN_ANOMALY":235.2056,"EPHEMERIS_TYPE":0,"CLASSIFICATION_TYPE":"U","NORAD_CAT_ID":58449,"ELEMENT_SET_NO":999,"REV_AT_EPOCH":578,"BSTAR":0.00020182866,"MEAN_MOTION_DOT":5.16e-5,"MEAN_MOTION_DDOT":0},{"OBJECT_NAME":"CZ-2C R\/B","OBJECT_ID":"2024-007B","EPOCH":"2026-03-09T13:33:21.523680","MEAN_MOTION":15.39758847,"ECCENTRICITY":0.00678111,"INCLINATION":29.0105,"RA_OF_ASC_NODE":269.6864,"ARG_OF_PERICENTER":313.7067,"MEAN_ANOMALY":45.794,"EPHEMERIS_TYPE":0,"CLASSIFICATION_TYPE":"U","NORAD_CAT_ID":58754,"ELEMENT_SET_NO":999,"REV_AT_EPOCH":12080,"BSTAR":0.0004050997,"MEAN_MOTION_DOT":0.00018271,"MEAN_MOTION_DDOT":0}]
